[{"OBJECT_NAME":"STARLINK-36879","OBJECT_ID":"2026-038X","EPOCH":"2026-03-10T18:00:01.999296","MEAN_MOTION":15.87158693,"ECCENTRICITY":0.0001413,"INCLINATION":97.2673,"RA_OF_ASC_NODE":80.1342,"ARG_OF_PERICENTER":78.826,"MEAN_ANOMALY":351.6131,"EPHEMERIS_TYPE":0,"CLASSIFICATION_TYPE":"U","NORAD_CAT_ID":67982,"ELEMENT_SET_NO":999,"REV_AT_EPOCH":336,"BSTAR":-0.0070252,"MEAN_MOTION_DOT":-0.01595606,"MEAN_MOTION_DDOT":0},{"OBJECT_NAME":"STARLINK-36867","OBJECT_ID":"2026-038Y","EPOCH":"2026-03-10T18:00:01.999296","MEAN_MOTION":15.87482413,"ECCENTRICITY":0.0001395,"INCLINATION":97.2667,"RA_OF_ASC_NODE":80.1389,"ARG_OF_PERICENTER":77.0905,"MEAN_ANOMALY":4.2275,"EPHEMERIS_TYPE":0,"CLASSIFICATION_TYPE":"U","NORAD_CAT_ID":67983,"ELEMENT_SET_NO":999,"REV_AT_EPOCH":336,"BSTAR":-0.006879,"MEAN_MOTION_DOT":-0.01588576,"MEAN_MOTION_DDOT":0},{"OBJECT_NAME":"STARLINK-36266","OBJECT_ID":"2026-038Z","EPOCH":"2026-03-10T18:00:01.999296","MEAN_MOTION":15.87339938,"ECCENTRICITY":0.0001419,"INCLINATION":97.2671,"RA_OF_ASC_NODE":80.1369,"ARG_OF_PERICENTER":82.2929,"MEAN_ANOMALY":354.1353,"EPHEMERIS_TYPE":0,"CLASSIFICATION_TYPE":"U","NORAD_CAT_ID":67984,"ELEMENT_SET_NO":999,"REV_AT_EPOCH":334,"BSTAR":-0.0069609,"MEAN_MOTION_DOT":-0.01595285,"MEAN_MOTION_DDOT":0},{"OBJECT_NAME":"STARLINK-36802","OBJECT_ID":"2026-038AA","EPOCH":"2026-03-10T18:00:01.999296","MEAN_MOTION":15.87617477,"ECCENTRICITY":0.0001398,"INCLINATION":97.2664,"RA_OF_ASC_NODE":80.1405,"ARG_OF_PERICENTER":81.711,"MEAN_ANOMALY":4.0644,"EPHEMERIS_TYPE":0,"CLASSIFICATION_TYPE":"U","NORAD_CAT_ID":67985,"ELEMENT_SET_NO":999,"REV_AT_EPOCH":336,"BSTAR":-0.0068353,"MEAN_MOTION_DOT":-0.01589045,"MEAN_MOTION_DDOT":0},{"OBJECT_NAME":"STARLINK-36535","OBJECT_ID":"2026-039A","EPOCH":"2026-03-10T18:00:01.999296","MEAN_MOTION":15.81988359,"ECCENTRICITY":0.0001571,"INCLINATION":43.0005,"RA_OF_ASC_NODE":48.4388,"ARG_OF_PERICENTER":257.6727,"MEAN_ANOMALY":73.7655,"EPHEMERIS_TYPE":0,"CLASSIFICATION_TYPE":"U","NORAD_CAT_ID":67986,"ELEMENT_SET_NO":999,"REV_AT_EPOCH":304,"BSTAR":0.00031624,"MEAN_MOTION_DOT":0.00066482,"MEAN_MOTION_DDOT":0},{"OBJECT_NAME":"STARLINK-36744","OBJECT_ID":"2026-039B","EPOCH":"2026-03-10T18:00:01.999296","MEAN_MOTION":15.81988005,"ECCENTRICITY":0.0001814,"INCLINATION":42.9995,"RA_OF_ASC_NODE":48.4278,"ARG_OF_PERICENTER":274.0591,"MEAN_ANOMALY":61.6661,"EPHEMERIS_TYPE":0,"CLASSIFICATION_TYPE":"U","NORAD_CAT_ID":67987,"ELEMENT_SET_NO":999,"REV_AT_EPOCH":304,"BSTAR":0.00020189,"MEAN_MOTION_DOT":0.0004213,"MEAN_MOTION_DDOT":0},{"OBJECT_NAME":"STARLINK-36734","OBJECT_ID":"2026-039C","EPOCH":"2026-03-10T18:00:01.999296","MEAN_MOTION":15.81404072,"ECCENTRICITY":0.0001408,"INCLINATION":42.9994,"RA_OF_ASC_NODE":48.4169,"ARG_OF_PERICENTER":255.6401,"MEAN_ANOMALY":84.1565,"EPHEMERIS_TYPE":0,"CLASSIFICATION_TYPE":"U","NORAD_CAT_ID":67988,"ELEMENT_SET_NO":999,"REV_AT_EPOCH":304,"BSTAR":-0.010872,"MEAN_MOTION_DOT":-0.01936467,"MEAN_MOTION_DDOT":0},{"OBJECT_NAME":"STARLINK-36957","OBJECT_ID":"2026-039D","EPOCH":"2026-03-10T18:00:01.999296","MEAN_MOTION":15.81992935,"ECCENTRICITY":0.0001978,"INCLINATION":42.9995,"RA_OF_ASC_NODE":48.4053,"ARG_OF_PERICENTER":263.9664,"MEAN_ANOMALY":80.2885,"EPHEMERIS_TYPE":0,"CLASSIFICATION_TYPE":"U","NORAD_CAT_ID":67989,"ELEMENT_SET_NO":999,"REV_AT_EPOCH":304,"BSTAR":0.00028132,"MEAN_MOTION_DOT":0.00059046,"MEAN_MOTION_DDOT":0},{"OBJECT_NAME":"STARLINK-36951","OBJECT_ID":"2026-039E","EPOCH":"2026-03-10T06:00:02.000160","MEAN_MOTION":15.81953896,"ECCENTRICITY":0.0001689,"INCLINATION":42.999,"RA_OF_ASC_NODE":51.4625,"ARG_OF_PERICENTER":256.5157,"MEAN_ANOMALY":120.9275,"EPHEMERIS_TYPE":0,"CLASSIFICATION_TYPE":"U","NORAD_CAT_ID":67990,"ELEMENT_SET_NO":999,"REV_AT_EPOCH":296,"BSTAR":0.00042400794,"MEAN_MOTION_DOT":0.00089414,"MEAN_MOTION_DDOT":0},{"OBJECT_NAME":"STARLINK-36941","OBJECT_ID":"2026-039F","EPOCH":"2026-03-10T18:00:01.999296","MEAN_MOTION":15.81044947,"ECCENTRICITY":0.0001625,"INCLINATION":42.9996,"RA_OF_ASC_NODE":48.384,"ARG_OF_PERICENTER":257.1338,"MEAN_ANOMALY":95.2555,"EPHEMERIS_TYPE":0,"CLASSIFICATION_TYPE":"U","NORAD_CAT_ID":67991,"ELEMENT_SET_NO":999,"REV_AT_EPOCH":304,"BSTAR":-0.011048,"MEAN_MOTION_DOT":-0.01935271,"MEAN_MOTION_DDOT":0},{"OBJECT_NAME":"STARLINK-36950","OBJECT_ID":"2026-039G","EPOCH":"2026-03-10T18:00:01.999296","MEAN_MOTION":15.82076284,"ECCENTRICITY":0.0001239,"INCLINATION":42.9995,"RA_OF_ASC_NODE":48.3726,"ARG_OF_PERICENTER":275.4581,"MEAN_ANOMALY":81.5846,"EPHEMERIS_TYPE":0,"CLASSIFICATION_TYPE":"U","NORAD_CAT_ID":67992,"ELEMENT_SET_NO":999,"REV_AT_EPOCH":304,"BSTAR":-0.00038031,"MEAN_MOTION_DOT":-0.00080098,"MEAN_MOTION_DDOT":0},{"OBJECT_NAME":"STARLINK-36975","OBJECT_ID":"2026-039H","EPOCH":"2026-03-10T18:00:01.999296","MEAN_MOTION":15.82095778,"ECCENTRICITY":0.0002237,"INCLINATION":42.9996,"RA_OF_ASC_NODE":48.3617,"ARG_OF_PERICENTER":258.7871,"MEAN_ANOMALY":102.5154,"EPHEMERIS_TYPE":0,"CLASSIFICATION_TYPE":"U","NORAD_CAT_ID":67993,"ELEMENT_SET_NO":999,"REV_AT_EPOCH":304,"BSTAR":-0.00061311,"MEAN_MOTION_DOT":-0.00128235,"MEAN_MOTION_DDOT":0},{"OBJECT_NAME":"STARLINK-36993","OBJECT_ID":"2026-039J","EPOCH":"2026-03-10T18:00:01.999296","MEAN_MOTION":15.82007454,"ECCENTRICITY":0.0001631,"INCLINATION":42.9997,"RA_OF_ASC_NODE":48.3515,"ARG_OF_PERICENTER":263.4922,"MEAN_ANOMALY":102.1362,"EPHEMERIS_TYPE":0,"CLASSIFICATION_TYPE":"U","NORAD_CAT_ID":67994,"ELEMENT_SET_NO":999,"REV_AT_EPOCH":304,"BSTAR":1.396e-5,"MEAN_MOTION_DOT":2.406e-5,"MEAN_MOTION_DDOT":0},{"OBJECT_NAME":"STARLINK-36968","OBJECT_ID":"2026-039K","EPOCH":"2026-03-10T18:00:01.999296","MEAN_MOTION":15.82061316,"ECCENTRICITY":0.0001599,"INCLINATION":42.9996,"RA_OF_ASC_NODE":48.3298,"ARG_OF_PERICENTER":262.9212,"MEAN_ANOMALY":111.2122,"EPHEMERIS_TYPE":0,"CLASSIFICATION_TYPE":"U","NORAD_CAT_ID":67995,"ELEMENT_SET_NO":999,"REV_AT_EPOCH":304,"BSTAR":-0.00026316,"MEAN_MOTION_DOT":-0.00055707,"MEAN_MOTION_DDOT":0},{"OBJECT_NAME":"STARLINK-36979","OBJECT_ID":"2026-039L","EPOCH":"2026-03-10T18:00:01.999296","MEAN_MOTION":15.82068425,"ECCENTRICITY":0.0001875,"INCLINATION":42.9997,"RA_OF_ASC_NODE":48.3406,"ARG_OF_PERICENTER":253.1654,"MEAN_ANOMALY":116.6988,"EPHEMERIS_TYPE":0,"CLASSIFICATION_TYPE":"U","NORAD_CAT_ID":67996,"ELEMENT_SET_NO":999,"REV_AT_EPOCH":304,"BSTAR":-0.00031449,"MEAN_MOTION_DOT":-0.00066414,"MEAN_MOTION_DDOT":0},{"OBJECT_NAME":"STARLINK-36994","OBJECT_ID":"2026-039M","EPOCH":"2026-03-10T18:00:01.999296","MEAN_MOTION":15.8202299,"ECCENTRICITY":0.0002344,"INCLINATION":42.9994,"RA_OF_ASC_NODE":48.3079,"ARG_OF_PERICENTER":270.1111,"MEAN_ANOMALY":112.6099,"EPHEMERIS_TYPE":0,"CLASSIFICATION_TYPE":"U","NORAD_CAT_ID":67997,"ELEMENT_SET_NO":999,"REV_AT_EPOCH":304,"BSTAR":-0.00016611,"MEAN_MOTION_DOT":-0.00035384,"MEAN_MOTION_DDOT":0}]
