STARLINK-36879          
1 67982U 26038X   26069.75002314 -.01595606  00000+0 -70252-2 0  9997
2 67982  97.2673  80.1342 0001413  78.8260 351.6131 15.87158693  3361
STARLINK-36867          
1 67983U 26038Y   26069.75002314 -.01588576  00000+0 -68790-2 0  9990
2 67983  97.2667  80.1389 0001395  77.0905   4.2275 15.87482413  3362
STARLINK-36266          
1 67984U 26038Z   26069.75002314 -.01595285  00000+0 -69609-2 0  9996
2 67984  97.2671  80.1369 0001419  82.2929 354.1353 15.87339938  3342
STARLINK-36802          
1 67985U 26038AA  26069.75002314 -.01589045  00000+0 -68353-2 0  9999
2 67985  97.2664  80.1405 0001398  81.7110   4.0644 15.87617477  3361
STARLINK-36535          
1 67986U 26039A   26069.75002314  .00066482  00000+0  31624-3 0  9995
2 67986  43.0005  48.4388 0001571 257.6727  73.7655 15.81988359  3042
STARLINK-36744          
1 67987U 26039B   26069.75002314  .00042130  00000+0  20189-3 0  9994
2 67987  42.9995  48.4278 0001814 274.0591  61.6661 15.81988005  3040
STARLINK-36734          
1 67988U 26039C   26069.75002314 -.01936467  00000+0 -10872-1 0  9999
2 67988  42.9994  48.4169 0001408 255.6401  84.1565 15.81404072  3043
STARLINK-36957          
1 67989U 26039D   26069.75002314  .00059046  00000+0  28132-3 0  9996
2 67989  42.9995  48.4053 0001978 263.9664  80.2885 15.81992935  3044
STARLINK-36951          
1 67990U 26039E   26069.25002315  .00089414  00000+0  42401-3 0  9991
2 67990  42.9990  51.4625 0001689 256.5157 120.9275 15.81953896  2962
STARLINK-36941          
1 67991U 26039F   26069.75002314 -.01935271  00000+0 -11048-1 0  9991
2 67991  42.9996  48.3840 0001625 257.1338  95.2555 15.81044947  3044
STARLINK-36950          
1 67992U 26039G   26069.75002314 -.00080098  00000+0 -38031-3 0  9992
2 67992  42.9995  48.3726 0001239 275.4581  81.5846 15.82076284  3042
STARLINK-36975          
1 67993U 26039H   26069.75002314 -.00128235  00000+0 -61311-3 0  9996
2 67993  42.9996  48.3617 0002237 258.7871 102.5154 15.82095778  3043
STARLINK-36993          
1 67994U 26039J   26069.75002314  .00002406  00000+0  13960-4 0  9994
2 67994  42.9997  48.3515 0001631 263.4922 102.1362 15.82007454  3040
STARLINK-36968          
1 67995U 26039K   26069.75002314 -.00055707  00000+0 -26316-3 0  9997
2 67995  42.9996  48.3298 0001599 262.9212 111.2122 15.82061316  3049
STARLINK-36979          
1 67996U 26039L   26069.75002314 -.00066414  00000+0 -31449-3 0  9998
2 67996  42.9997  48.3406 0001875 253.1654 116.6988 15.82068425  3048
STARLINK-36994          
1 67997U 26039M   26069.75002314 -.00035384  00000+0 -16611-3 0  9995
2 67997  42.9994  48.3079 0002344 270.1111 112.6099 15.82022990  3047
